#dP2023  5 17  0  0  0.00000000      96 __u+U IGS14 FIT  IAC
## 2262 259200.00000000   900.00000000 60081 0.0000000000000
+  118   C06C07C08C09C10C11C12C13C14C16C19C20C21C22C23C24C25
+        C26C27C28C29C30C32C33C34C35C36C37C38C39C40C41C42C43
+        C44C45C46E02E04E05E07E08E09E10E11E12E13E14E15E18E19
+        E21E24E25E26E27E30E31E33E34E36G01G02G03G04G05G06G07
+        G08G09G10G11G12G13G14G15G16G17G18G19G20G21G22G23G24
+        G25G26G27G28G29G30G31G32J02J03J04R01R02R03R04R05R07
+        R08R09R11R12R13R14R15R16R17R18R19R20R21R22R24R25  0
++         7  7  7  7  7  7  7  7  7  7  6  6  6  6  6  6  6
++         6  6  6  6  6  6  6  6  6  6  6  6  6  6  6  6  6
++         6  6  6  4  4  4  4  4  4  4  4  4  4  5  5  4  4
++         4  4  4  4  4  4  4  4  5  4  3  3  4  4  3  4  3
++         3  3  3  4  4  3  4  4  3  4  3  4  4  3  4  3  3
++         3  4  3  4  3  3  4  3  9  9 10  8  7  7  7  7  6
++         7  6  7  6  8  7  7  7  7  7  8  8  6  6  7  8  0
%c M  cc GPS ccc cccc cccc cccc cccc ccccc ccccc ccccc ccccc
%c cc cc ccc ccc cccc cccc cccc cccc ccccc ccccc ccccc ccccc
%f  1.2500000  1.025000000  0.00000000000  0.000000000000000
%f  0.0000000  0.000000000  0.00000000000  0.000000000000000
%i    0    0    0    0      0      0      0      0         0
%i    0    0    0    0      0      0      0      0         0
/* INFORMATION & ANALYSIS CENTER (IAC)            FINAL DATA
/* S/V CLOCKS ARE ALIGNED TO GNSS TIME                      
/* G:C1WC2W R:C1PC2P E:C1XC5X C:C2IC6I J:C1CC2S             
/* PCV:IGS20_2247 OL/AL:FES2004  NONE     YN ORB:CoN CLK:CoN
*  2023 05 17 19 30  0.00000000
PC06  -9762.442332  23461.074886  33658.691453   -190.264834
PC07 -15317.333976  38999.759243  -5550.948491    -33.602551
PC08   1027.477289  33579.259660 -25376.740300    483.129652
PC09   1450.419740  25013.825685  34388.943824    642.429715
PC10  -8764.122172  39524.575085 -12426.538923    -60.976161
PC11   4566.942288 -15528.819024  22789.218263    624.574520
PC12  22627.340798 -10609.621801  12441.616290    646.134309
PC13   6513.770399  36778.695972 -19169.093327    276.743830
PC14   5927.639762 -26341.566416  -6897.779150    273.788327
PC16 -13888.224494  22097.646210  33297.961648     75.117392
PC19   1331.070829  23435.246046  15143.553713   -911.303079
PC20 -11245.262468  25554.255987   -656.537759    561.883819
PC21  18053.824903 -12262.826399  17391.849407   -915.451892
PC22  13764.660119   7735.379400  23014.013079   -483.774939
PC23 -20481.481950 -16911.138797   8565.498759   -931.212974
PC24   6004.400014 -17279.293704 -21089.516028    -43.206837
PC25 -11654.501071 -24046.119642  -8084.982012    128.523676
PC26  18027.339954  -1804.648719 -21230.433972   -121.691604
PC27 -26789.596036   6270.804000  -4648.109992    141.632972
PC28 -24822.797218  -5320.533916  11588.773625    104.816333
PC29   7598.330389  14720.107907 -22467.540998    121.692783
PC30 -14192.777391  15271.417387 -18550.961624     -0.326212
PC32 -17959.638226  12398.479924 -17384.194739   -560.988642
PC33  -1415.344870 -23451.344943 -15031.878770   -882.816732
PC34  12913.342455 -15571.717947  19216.118322    172.854515
PC35  24646.956454   4934.218092 -12179.631502    625.646328
PC36  10502.303999  24328.184451   8770.040112   -436.033321
PC37 -18628.292411    145.390248  20797.507557   -784.193958
PC38  -5983.163265  29332.075895 -29613.320661     79.009115
PC39 -18946.324064  21298.638797  31055.107809     -2.970361
PC40 -21935.289107  35922.587399  -4230.561110    -23.486969
PC41 -13488.268847  -8359.676694 -22897.244959   -942.390097
PC42  12020.851285 -25082.974964   2081.743096   -687.814433
PC43  -6610.167011 -15078.880437  22514.925990     21.868780
PC44  26634.470441  -7139.575664   4383.677626    109.654353
PC45  20521.053234  16604.111438  -9021.265753    -98.812492
PC46  -4634.959119  18252.726126  20583.095937    -54.758763
PE02  -8303.507504 -27073.831674   8633.587350     38.701710
PE04  22452.922325    691.459048  19287.583290   -124.471407
PE05  13132.697200 -22041.192008 -14747.166893    -66.554947
PE07 -25247.777375  15113.503032  -3259.941570    -45.796855
PE08 -22239.431313   -792.616990 -19517.087505    -84.572462
PE09  25252.093908 -15033.097382   3471.847260    -18.112657
PE10  26833.140845   3771.619933  11903.037142   -534.443179
PE11  21531.895304  -4264.600955  19852.544193   1953.659182
PE12  27508.799981  10587.597664   2833.960707   -542.692496
PE13 -22014.286386   3691.968714 -19437.125950    -19.188684
PE14   3252.106285 -17183.799503  15896.462480    227.938105
PE15 -27460.046384 -10747.652362  -2505.865869    -22.516935
PE18  -6760.782951  23700.095246 -20904.447169     75.366805
PE19   4050.202235  17287.438150  23697.375569  -2511.363689
PE21  -3742.896783  27914.113421   9108.909936   -529.670882
PE24  14722.186873 -11870.521899 -22791.313484   -104.192757
PE25   3965.198187 -27781.652593  -9414.757556   -605.222752
PE26  -2999.166577  16245.868454 -24563.510956    107.095760
PE27 -14376.461333  12678.526126  22554.300788    -51.897610
PE30 -16339.901837 -10527.930355  22315.366096   -180.878183
PE31  16423.387890   9851.656057 -22564.607678   -523.956740
PE33  16656.892580  18726.415706 -15762.245676   -444.335454
PE34 -16823.302587 -18668.712839  15631.511770    -45.937226
PE36   3773.252980 -15768.106073  24760.272984    -57.565949
PG01  21858.256844  14890.598522  -4353.048821    184.626547
PG02  -1531.125044  15224.108761 -21272.691290   -595.215204
PG03  12480.828571  15682.729693  17358.711390   -300.371233
PG04  17375.237160   5345.490708  19415.871413     43.991615
PG05  -5338.779069 -25657.008497  -4079.710820   -127.571121
PG06  11851.139024  -9893.200538  21687.737339    587.945821
PG07  24458.589154   5181.183909  -9197.573561    175.817995
PG08   6739.664550  13848.430239 -21686.053406   -122.889690
PG09  22778.456110  -4501.882255  12863.432659   -156.686322
PG10 -11357.327234  15413.814803 -18093.482869    -37.334303
PG11  -3324.884168 -17599.088353  19633.719862   -200.468081
PG12 -10310.411803 -18837.962078  15402.942059   -377.231125
PG13   2273.745830 -16706.117468 -20647.467476    521.320918
PG14  13517.846354 -12284.306006 -19219.339188     60.185074
PG15  -9104.433283 -13300.942065 -21556.237680     40.432371
PG16     21.554385  26287.034174  -1411.837326   -500.156679
PG17  22576.161113 -14044.314975   1692.351895    715.151898
PG18 -23164.197576  -2436.845409 -12908.419393   -270.333323
PG19  18399.855893 -16392.406155   9274.413159    318.209144
PG20  -1520.172256 -25985.033329   5823.211161    433.052126
PG21  17943.529370  16030.124668 -11592.414287    153.763139
PG22 -15113.250567  18054.437334  12581.511517    482.949837
PG23 -14766.757968   2360.036901 -21940.787944     25.014746
PG24 -20283.573150 -15266.266560  -8857.156300   -192.262550
PG25 -15019.366360  -7044.102076  20484.661696    443.506581
PG26  -5621.228978  23139.195287  11288.201700    240.665784
PG27  -5207.480507  18527.670371 -18370.517212     35.441494
PG28 -13532.473933   9621.949874  20705.780731     78.376883
PG29 -21838.218361    261.622696  15123.422805   -599.766977
PG30  19360.133837  -4544.087389 -17616.627996   -516.628018
PG31  -3256.024632  15324.910164  21227.996248   -216.301792
PG32 -20458.709692  16444.791460   3467.210074   -478.860870
PJ02 -27475.752434  26282.776413  23402.061633     -0.014697
PJ03 -31071.245406  16436.900043 -18621.055021      4.354852
PJ04 -22930.591614  33053.786394  -7740.656716     94.603258
PR01  -4722.436888  20574.392601  14339.859803     57.683428
PR02   7974.034417   7533.140300  23075.246280    -22.826504
PR03  16030.726975  -9156.672000  17679.839982     78.007148
PR04  15145.483037 -20354.301445   2721.408148    187.561008
PR05   6142.909654 -20587.406489 -13749.918892    112.717339
PR07 -16149.457822   9852.587839 -17041.685078     56.102776
PR08 -14904.813620  20541.650784  -2355.645316    -70.819315
PR09 -15070.476253 -18256.350036   9413.291960    120.701507
PR11  -5093.811154  12465.154509  21678.704458    -58.079294
PR12   7210.468534  22987.879176   8387.269947     27.349447
PR13  14414.113904  19611.727691  -7649.162411    -35.142358
PR14  13490.586459   3561.578487 -21346.283005     24.679884
PR15   4530.100938 -13501.184755 -21141.441260     89.318259
PR16  -7259.982240 -22838.884714  -8677.978842     14.657089
PR17  25204.097888    -92.455504   3805.988558    630.828186
PR18  16464.654624  -6984.227919  18221.158796     82.007756
PR19    995.173632 -10311.026205  23303.026658   -232.968908
PR20 -19507.681856  -8364.609361  14114.578712    -93.011680
PR21 -24948.276909    616.680163  -5340.929930     -8.211469
PR22 -15877.407437   7095.196360 -18632.326569     81.524690
PR24  20225.147247   7764.551584 -13446.271241    171.188813
PR25 -25235.628341  -1099.554643  -3618.693528     61.385050
EOF
